{"type": "FeatureCollection", "features": [ {"type": "Feature", "properties": {"norad_id": 65304, "name": "DRAGON CRS-33", "group": "stations", "lat": -34.90149019847951, "lon": 43.520351683112246, "alt_km": 419.05609672966693, "timestamp": "2025-12-25T22:42:15.744205+00:00", "meta": {"OBJECT_NAME": "DRAGON CRS-33", "OBJECT_ID": "2025-186A", "EPOCH": "2025-12-25T13:37:14.375136", "MEAN_MOTION": 15.49813539, "ECCENTRICITY": 0.00032241, "INCLINATION": 51.6318, "RA_OF_ASC_NODE": 78.9495, "ARG_OF_PERICENTER": 299.9641, "MEAN_ANOMALY": 60.1027, "EPHEMERIS_TYPE": 0, "CLASSIFICATION_TYPE": "U", "NORAD_CAT_ID": 65304, "ELEMENT_SET_NO": 999, "REV_AT_EPOCH": 11, "BSTAR": 0.0002559065, "MEAN_MOTION_DOT": 0.00014081, "MEAN_MOTION_DDOT": 0}, "tle": {"line1": "1 65304U 25186A   25359.56752749  .00014081  00000+0  25591-3 0  9997", "line2": "2 65304  51.6318  78.9495 0003224 299.9641  60.1027 15.49813539   113"}}, "geometry": {"type": "Point", "coordinates": [43.520351683112246, -34.90149019847951]}}, {"type": "Feature", "properties": {"norad_id": 65586, "name": "PROGRESS-MS 32", "group": "stations", "lat": -34.90148977664919, "lon": 43.520352278736894, "alt_km": 419.0560967119045, "timestamp": "2025-12-25T22:42:15.744215+00:00", "meta": {"OBJECT_NAME": "PROGRESS-MS 32", "OBJECT_ID": "2025-204A", "EPOCH": "2025-12-25T13:37:14.375136", "MEAN_MOTION": 15.49813539, "ECCENTRICITY": 0.00032241, "INCLINATION": 51.6318, "RA_OF_ASC_NODE": 78.9495, "ARG_OF_PERICENTER": 299.9641, "MEAN_ANOMALY": 60.1027, "EPHEMERIS_TYPE": 0, "CLASSIFICATION_TYPE": "U", "NORAD_CAT_ID": 65586, "ELEMENT_SET_NO": 999, "REV_AT_EPOCH": 27, "BSTAR": 0.0002559065, "MEAN_MOTION_DOT": 0.00014081, "MEAN_MOTION_DDOT": 0}, "tle": {"line1": "1 65586U 25204A   25359.56752749  .00014081  00000+0  25591-3 0  9990", "line2": "2 65586  51.6318  78.9495 0003224 299.9641  60.1027 15.49813539   272"}}, "geometry": {"type": "Point", "coordinates": [43.520352278736894, -34.90148977664919]}}, {"type": "Feature", "properties": {"norad_id": 65616, "name": "CYGNUS NG-23", "group": "stations", "lat": -34.90148935481944, "lon": 43.520352874360746, "alt_km": 419.0560966941466, "timestamp": "2025-12-25T22:42:15.744225+00:00", "meta": {"OBJECT_NAME": "CYGNUS NG-23", "OBJECT_ID": "2025-208A", "EPOCH": "2025-12-25T13:37:14.375136", "MEAN_MOTION": 15.49813539, "ECCENTRICITY": 0.00032241, "INCLINATION": 51.6318, "RA_OF_ASC_NODE": 78.9495, "ARG_OF_PERICENTER": 299.9641, "MEAN_ANOMALY": 60.1027, "EPHEMERIS_TYPE": 0, "CLASSIFICATION_TYPE": "U", "NORAD_CAT_ID": 65616, "ELEMENT_SET_NO": 999, "REV_AT_EPOCH": 22, "BSTAR": 0.0002559065, "MEAN_MOTION_DOT": 0.00014081, "MEAN_MOTION_DDOT": 0}, "tle": {"line1": "1 65616U 25208A   25359.56752749  .00014081  00000+0  25591-3 0  9998", "line2": "2 65616  51.6318  78.9495 0003224 299.9641  60.1027 15.49813539   221"}}, "geometry": {"type": "Point", "coordinates": [43.520352874360746, -34.90148935481944]}}, {"type": "Feature", "properties": {"norad_id": 65729, "name": "DRAGONFLY", "group": "stations", "lat": 13.082037764480187, "lon": 78.52433486830988, "alt_km": 334.0586606295192, "timestamp": "2025-12-25T22:42:15.744235+00:00", "meta": {"OBJECT_NAME": "DRAGONFLY", "OBJECT_ID": "1998-067XH", "EPOCH": "2025-12-25T10:27:45.650592", "MEAN_MOTION": 15.76365427, "ECCENTRICITY": 0.0008108, "INCLINATION": 51.6246, "RA_OF_ASC_NODE": 70.5435, "ARG_OF_PERICENTER": 352.3473, "MEAN_ANOMALY": 7.7402, "EPHEMERIS_TYPE": 0, "CLASSIFICATION_TYPE": "U", "NORAD_CAT_ID": 65729, "ELEMENT_SET_NO": 999, "REV_AT_EPOCH": 1516, "BSTAR": 0.0012462, "MEAN_MOTION_DOT": 0.00205682, "MEAN_MOTION_DDOT": 0}, "tle": {"line1": "1 65729U 98067XH  25359.43594503  .00205682  00000+0  12462-2 0  9995", "line2": "2 65729  51.6246  70.5435 0008108 352.3473   7.7402 15.76365427 15162"}}, "geometry": {"type": "Point", "coordinates": [78.52433486830988, 13.082037764480187]}}, {"type": "Feature", "properties": {"norad_id": 65731, "name": "1998-067XK", "group": "stations", "lat": 42.78285683528435, "lon": 117.26762477472346, "alt_km": 358.15710427280374, "timestamp": "2025-12-25T22:42:15.744260+00:00", "meta": {"OBJECT_NAME": "1998-067XK", "OBJECT_ID": "1998-067XK", "EPOCH": "2025-12-25T10:12:53.157600", "MEAN_MOTION": 15.68190108, "ECCENTRICITY": 0.0005001, "INCLINATION": 51.6286, "RA_OF_ASC_NODE": 72.7563, "ARG_OF_PERICENTER": 324.4841, "MEAN_ANOMALY": 35.5822, "EPHEMERIS_TYPE": 0, "CLASSIFICATION_TYPE": "U", "NORAD_CAT_ID": 65731, "ELEMENT_SET_NO": 999, "REV_AT_EPOCH": 1513, "BSTAR": 0.00091133, "MEAN_MOTION_DOT": 0.00104664, "MEAN_MOTION_DDOT": 0}, "tle": {"line1": "1 65731U 98067XK  25359.42561525  .00104664  00000+0  91133-3 0  9996", "line2": "2 65731  51.6286  72.7563 0005001 324.4841  35.5822 15.68190108 15138"}}, "geometry": {"type": "Point", "coordinates": [117.26762477472346, 42.78285683528435]}}, {"type": "Feature", "properties": {"norad_id": 65732, "name": "RSP-03", "group": "stations", "lat": -7.595185583505286, "lon": -104.86546992456387, "alt_km": 357.9222487431034, "timestamp": "2025-12-25T22:42:15.744273+00:00", "meta": {"OBJECT_NAME": "RSP-03", "OBJECT_ID": "1998-067XL", "EPOCH": "2025-12-25T06:38:37.432032", "MEAN_MOTION": 15.71873826, "ECCENTRICITY": 0.0006046, "INCLINATION": 51.626, "RA_OF_ASC_NODE": 72.4976, "ARG_OF_PERICENTER": 331.0295, "MEAN_ANOMALY": 29.0366, "EPHEMERIS_TYPE": 0, "CLASSIFICATION_TYPE": "U", "NORAD_CAT_ID": 65732, "ELEMENT_SET_NO": 999, "REV_AT_EPOCH": 1513, "BSTAR": 0.0010911, "MEAN_MOTION_DOT": 0.00147046, "MEAN_MOTION_DDOT": 0}, "tle": {"line1": "1 65732U 98067XL  25359.27682213  .00147046  00000+0  10911-2 0  9993", "line2": "2 65732  51.6260  72.4976 0006046 331.0295  29.0366 15.71873826 15133"}}, "geometry": {"type": "Point", "coordinates": [-104.86546992456387, -7.595185583505286]}}, {"type": "Feature", "properties": {"norad_id": 65733, "name": "GHS-01", "group": "stations", "lat": 49.98354820120594, "lon": 176.30259589782574, "alt_km": 322.1541216977366, "timestamp": "2025-12-25T22:42:15.744284+00:00", "meta": {"OBJECT_NAME": "GHS-01", "OBJECT_ID": "1998-067XM", "EPOCH": "2025-12-25T11:39:15.872832", "MEAN_MOTION": 15.80737686, "ECCENTRICITY": 0.0009282, "INCLINATION": 51.6282, "RA_OF_ASC_NODE": 69.3856, "ARG_OF_PERICENTER": 357.4612, "MEAN_ANOMALY": 2.6342, "EPHEMERIS_TYPE": 0, "CLASSIFICATION_TYPE": "U", "NORAD_CAT_ID": 65733, "ELEMENT_SET_NO": 999, "REV_AT_EPOCH": 1519, "BSTAR": 0.0014102, "MEAN_MOTION_DOT": 0.0028642, "MEAN_MOTION_DDOT": 0}, "tle": {"line1": "1 65733U 98067XM  25359.48560038  .00286420  00000+0  14102-2 0  9993", "line2": "2 65733  51.6282  69.3856 0009282 357.4612   2.6342 15.80737686 15190"}}, "geometry": {"type": "Point", "coordinates": [176.30259589782574, 49.98354820120594]}}, {"type": "Feature", "properties": {"norad_id": 65941, "name": "YOTSUBA-KULOVER", "group": "stations", "lat": -32.89687016799352, "lon": -75.65287613457393, "alt_km": 389.1901786410608, "timestamp": "2025-12-25T22:42:15.744294+00:00", "meta": {"OBJECT_NAME": "YOTSUBA-KULOVER", "OBJECT_ID": "1998-067XN", "EPOCH": "2025-12-25T07:55:23.883456", "MEAN_MOTION": 15.61141246, "ECCENTRICITY": 0.00024963, "INCLINATION": 51.6289, "RA_OF_ASC_NODE": 76.6197, "ARG_OF_PERICENTER": 359.01, "MEAN_ANOMALY": 1.0889, "EPHEMERIS_TYPE": 0, "CLASSIFICATION_TYPE": "U", "NORAD_CAT_ID": 65941, "ELEMENT_SET_NO": 999, "REV_AT_EPOCH": 1182, "BSTAR": 0.00081019067, "MEAN_MOTION_DOT": 0.00069861, "MEAN_MOTION_DDOT": 0}, "tle": {"line1": "1 65941U 98067XN  25359.33013754  .00069861  00000+0  81019-3 0  9996", "line2": "2 65941  51.6289  76.6197 0002496 359.0100   1.0889 15.61141246 11822"}}, "geometry": {"type": "Point", "coordinates": [-75.65287613457393, -32.89687016799352]}}, {"type": "Feature", "properties": {"norad_id": 65942, "name": "BOTAN", "group": "stations", "lat": 14.693041218677994, "lon": 84.4313267166539, "alt_km": 368.1088504746758, "timestamp": "2025-12-25T22:42:15.744304+00:00", "meta": {"OBJECT_NAME": "BOTAN", "OBJECT_ID": "1998-067XP", "EPOCH": "2025-12-25T11:54:02.710944", "MEAN_MOTION": 15.65573117, "ECCENTRICITY": 0.00034448, "INCLINATION": 51.6278, "RA_OF_ASC_NODE": 74.724, "ARG_OF_PERICENTER": 339.5705, "MEAN_ANOMALY": 20.5152, "EPHEMERIS_TYPE": 0, "CLASSIFICATION_TYPE": "U", "NORAD_CAT_ID": 65942, "ELEMENT_SET_NO": 999, "REV_AT_EPOCH": 1186, "BSTAR": 0.0011099214, "MEAN_MOTION_DOT": 0.0011485, "MEAN_MOTION_DDOT": 0}, "tle": {"line1": "1 65942U 98067XP  25359.49586471  .00114850  00000+0  11099-2 0  9994", "line2": "2 65942  51.6278  74.7240 0003444 339.5705  20.5152 15.65573117 11860"}}, "geometry": {"type": "Point", "coordinates": [84.4313267166539, 14.693041218677994]}}, {"type": "Feature", "properties": {"norad_id": 65943, "name": "E-KAGAKU-1", "group": "stations", "lat": -32.57053174581412, "lon": -76.07242571880158, "alt_km": 388.1716405394927, "timestamp": "2025-12-25T22:42:15.744317+00:00", "meta": {"OBJECT_NAME": "E-KAGAKU-1", "OBJECT_ID": "1998-067XQ", "EPOCH": "2025-12-25T10:59:52.984032", "MEAN_MOTION": 15.61171734, "ECCENTRICITY": 0.00014574, "INCLINATION": 51.631, "RA_OF_ASC_NODE": 75.9814, "ARG_OF_PERICENTER": 327.9549, "MEAN_ANOMALY": 32.1355, "EPHEMERIS_TYPE": 0, "CLASSIFICATION_TYPE": "U", "NORAD_CAT_ID": 65943, "ELEMENT_SET_NO": 999, "REV_AT_EPOCH": 1184, "BSTAR": 0.00081459816, "MEAN_MOTION_DOT": 0.00070327, "MEAN_MOTION_DDOT": 0}, "tle": {"line1": "1 65943U 98067XQ  25359.45825213  .00070327  00000+0  81460-3 0  9991", "line2": "2 65943  51.6310  75.9814 0001457 327.9549  32.1355 15.61171734 11844"}}, "geometry": {"type": "Point", "coordinates": [-76.07242571880158, -32.57053174581412]}}]}